NORAD_CAT_ID,OBJECT_NAME,OBJECT_TYPE,EPOCH,MEAN_MOTION,ECCENTRICITY,INCLINATION,RA_OF_ASC_NODE,ARG_OF_PERICENTER,MEAN_ANOMALY,BSTAR,MEAN_MOTION_DOT,MEAN_MOTION_DDOT,TLE_LINE0,TLE_LINE1,TLE_LINE2,SEMIMAJOR_AXIS,PERIOD,APOGEE,PERIGEE,DECAYED
49724.0,STARLINK-3219,PAYLOAD,2023-09-22 04:17:21,15.0769022,0.0001682,53.2165,227.3982,95.9733,264.1451,0.0039598,0.00061322,0.0,0 STARLINK-3219,1 49724U 21115A   23265.17872403  .00061322  00000-0  39598-2 0  9996,2 49724  53.2165 227.3982 0001682  95.9733 264.1451 15.07690220100844,6921.397,95.51,544.426,542.098,0.0
49724.0,STARLINK-3219,PAYLOAD,2023-09-22 09:03:37,15.07791229,0.0001617,53.2164,226.5067,90.7548,269.3629,0.0046278,0.00072022,0.0,0 STARLINK-3219,1 49724U 21115A   23265.37751760  .00072022  00000-0  46278-2 0  9992,2 49724  53.2164 226.5067 0001617  90.7548 269.3629 15.07791229100871,6921.088,95.504,544.072,541.834,0.0
49724.0,STARLINK-3219,PAYLOAD,2023-09-22 12:14:24,15.07893734,0.0001675,53.2162,225.9112,114.3015,245.8151,0.0053777,0.00084117,0.0,0 STARLINK-3219,1 49724U 21115A   23265.51000900  .00084117  00000-0  53777-2 0  9991,2 49724  53.2162 225.9112 0001675 114.3015 245.8151 15.07893734 99789,6920.774,95.497,543.798,541.48,0.0
49724.0,STARLINK-3219,PAYLOAD,2023-09-22 17:00:38,15.07993563,0.0001637,53.2164,225.0196,82.7179,277.3999,0.0059721,0.0009383,0.0,0 STARLINK-3219,1 49724U 21115A   23265.70878380  .00093830  00000-0  59721-2 0  9994,2 49724  53.2164 225.0196 0001637  82.7179 277.3999 15.07993563100921,6920.469,95.491,543.467,541.201,0.0
49724.0,STARLINK-3219,PAYLOAD,2023-09-23 06:00:00,15.08833905,0.0001381,53.2156,222.5949,85.9991,334.0704,-0.0017098,-0.00027392,0.0,0 STARLINK-3219,1 49724U 21115A   23266.25001157 -.00027392  00000-0 -17098-2 0  9998,2 49724  53.2156 222.5949 0001381  85.9991 334.0704 15.08833905101002,6917.899,95.438,540.719,538.809,0.0
49724.0,STARLINK-3219,PAYLOAD,2023-09-23 14:00:01,15.08822584,0.0001329,53.2154,221.0973,90.1483,341.4908,-0.00023749,-4.064e-05,0.0,0 STARLINK-3219,1 49724U 21115A   23266.58334491 -.00004064  00000-0 -23749-3 0  9996,2 49724  53.2154 221.0973 0001329  90.1483 341.4908 15.08822584  5740,6917.934,95.439,540.718,538.879,0.0
49724.0,STARLINK-3219,PAYLOAD,2023-09-23 22:00:01,15.08840728,0.0001354,53.2155,219.6006,95.0479,348.2257,0.0013679,0.0002155,0.0,0 STARLINK-3219,1 49724U 21115A   23266.91668981  .00021550  00000-0  13679-2 0  9994,2 49724  53.2155 219.6006 0001354  95.0479 348.2257 15.08840728101107,6917.878,95.438,540.68,538.806,0.0
49724.0,STARLINK-3219,PAYLOAD,2023-09-24 14:00:01,15.08827586,0.0001299,53.2152,216.6081,86.5918,19.8187,0.000566,8.728e-05,0.0,0 STARLINK-3219,1 49724U 21115A   23267.58334491  .00008728  00000-0  56600-3 0  9998,2 49724  53.2152 216.6081 0001299  86.5918  19.8187 15.08827586101206,6917.918,95.438,540.682,538.885,0.0
49724.0,STARLINK-3219,PAYLOAD,2023-09-24 22:00:00,15.08857059,0.0001346,53.2153,215.1116,93.5548,24.4342,0.00035021,5.293e-05,0.0,0 STARLINK-3219,1 49724U 21115A   23267.91667824  .00005293  00000-0  35021-3 0  9992,2 49724  53.2153 215.1116 0001346  93.5548  24.4342 15.08857059  5846,6917.828,95.436,540.624,538.762,0.0
49724.0,STARLINK-3219,PAYLOAD,2023-09-25 14:00:01,15.08850463,0.0001318,53.215,212.1188,103.1611,38.1274,0.0021344,0.00033854,0.0,0 STARLINK-3219,1 49724U 21115A   23268.58335648  .00033854  00000-0  21344-2 0  9998,2 49724  53.2150 212.1188 0001318 103.1611  38.1274 15.08850463101369,6917.848,95.437,540.625,538.802,0.0
49724.0,STARLINK-3219,PAYLOAD,2023-09-26 00:00:00,15.08947201,0.0001365,53.215,210.249,97.3697,148.3676,-0.0098583,-0.00154292,0.0,0 STARLINK-3219,1 49724U 21115A   23269.00001157 -.00154292  00000-0 -98583-2 0  9992,2 49724  53.2150 210.2490 0001365  97.3697 148.3676 15.08947201  5814,6917.553,95.431,540.362,538.473,0.0
49724.0,STARLINK-3219,PAYLOAD,2023-09-26 06:00:00,15.08818665,0.0001398,53.215,209.1275,81.6943,82.8113,-0.0024817,-0.00039544,0.0,0 STARLINK-3219,1 49724U 21115A   23269.25001157 -.00039544  00000-0 -24817-2 0  9990,2 49724  53.2150 209.1275 0001398  81.6943  82.8113 15.08818665101465,6917.946,95.439,540.778,538.843,0.0
49724.0,STARLINK-3219,PAYLOAD,2023-09-26 14:00:01,15.0879106,0.0001414,53.215,207.6295,86.1441,89.9781,0.0019625,0.00031041,0.0,0 STARLINK-3219,1 49724U 21115A   23269.58335648  .00031041  00000-0  19625-2 0  9994,2 49724  53.2150 207.6295 0001414  86.1441  89.9781 15.08791060  5799,6918.03,95.441,540.873,538.917,0.0
49724.0,STARLINK-3219,PAYLOAD,2023-09-26 22:00:00,15.08835844,0.0001526,53.2152,206.1334,90.689,96.9134,0.00038849,5.9e-05,0.0,0 STARLINK-3219,1 49724U 21115A   23269.91667824  .00005900  00000-0  38849-3 0  9990,2 49724  53.2152 206.1334 0001526  90.6890  96.9134 15.08835844101562,6917.893,95.438,540.814,538.702,0.0
49724.0,STARLINK-3219,PAYLOAD,2023-09-27 00:00:00,15.08875253,0.0001491,53.2151,205.7598,91.3249,189.1772,-0.0042776,-0.00067791,0.0,0 STARLINK-3219,1 49724U 21115A   23270.00001157 -.00067791  00000-0 -42776-2 0  9994,2 49724  53.2151 205.7598 0001491  91.3249 189.1772 15.08875253  5558,6917.773,95.435,540.669,538.606,0.0
49724.0,STARLINK-3219,PAYLOAD,2023-09-27 03:31:52,15.08839819,0.0001626,53.2158,205.0985,83.0611,277.0566,-9.8462e-05,-1.855e-05,0.0,0 STARLINK-3219,1 49724U 21115A   23270.14713912 -.00001855  00000-0 -98462-4 0  9992,2 49724  53.2158 205.0985 0001626  83.0611 277.0566 15.08839819100483,6917.881,95.438,540.871,538.621,0.0
49724.0,STARLINK-3219,PAYLOAD,2023-09-27 13:04:12,15.08831138,0.0001679,53.2162,203.3157,86.226,273.8925,-0.00016188,-2.863e-05,0.0,0 STARLINK-3219,1 49724U 21115A   23270.54458457 -.00002863  00000-0 -16188-3 0  9990,2 49724  53.2162 203.3157 0001679  86.2260 273.8925 15.08831138101652,6917.907,95.438,540.934,538.611,0.0
49724.0,STARLINK-3219,PAYLOAD,2023-09-28 04:58:03,15.08825292,0.0001537,53.2172,200.3372,106.2534,253.8627,-9.7191e-05,-1.834e-05,0.0,0 STARLINK-3219,1 49724U 21115A   23271.20698939 -.00001834  00000-0 -97191-4 0  9996,2 49724  53.2172 200.3372 0001537 106.2534 253.8627 15.08825292100648,6917.925,95.438,540.854,538.727,0.0
49724.0,STARLINK-3219,PAYLOAD,2023-09-28 22:27:18,15.08839018,0.0001588,53.2175,197.0686,105.4958,254.621,0.00031379,4.709e-05,0.0,0 STARLINK-3219,1 49724U 21115A   23271.93563516  .00004709  00000-0  31379-3 0  9995,2 49724  53.2175 197.0686 0001588 105.4958 254.6210 15.08839018100758,6917.883,95.438,540.847,538.65,0.0
49724.0,STARLINK-3219,PAYLOAD,2023-09-29 04:48:51,15.08855027,0.0001371,53.2168,195.883,84.419,275.6959,0.00061609,9.535e-05,0.0,0 STARLINK-3219,1 49724U 21115A   23272.20059107  .00009535  00000-0  61609-3 0  9993,2 49724  53.2168 195.8830 0001371  84.4190 275.6959 15.08855027101900,6917.834,95.437,540.648,538.751,0.0
49724.0,STARLINK-3219,PAYLOAD,2023-09-30 01:28:51,15.08857026,0.0001316,53.2166,192.0139,90.5918,269.5225,0.00049003,7.523e-05,0.0,0 STARLINK-3219,1 49724U 21115A   23273.06170678  .00007523  00000-0  49003-3 0  9994,2 49724  53.2166 192.0139 0001316  90.5918 269.5225 15.08857026102038,6917.828,95.436,540.604,538.783,0.0
49724.0,STARLINK-3219,PAYLOAD,2023-09-30 18:58:06,15.08840647,0.0001398,53.2173,188.7462,83.9482,276.1669,-9.4035e-05,-1.784e-05,0.0,0 STARLINK-3219,1 49724U 21115A   23273.79035120 -.00001784  00000-0 -94035-4 0  9997,2 49724  53.2173 188.7462 0001398  83.9482 276.1669 15.08840647102148,6917.878,95.438,540.711,538.776,0.0
49724.0,STARLINK-3219,PAYLOAD,2023-10-01 10:51:57,15.08845504,0.0001108,53.2165,185.7679,100.984,259.1277,0.00033232,5.006e-05,0.0,0 STARLINK-3219,1 49724U 21115A   23274.45275057  .00005006  00000-0  33232-3 0  9996,2 49724  53.2165 185.7679 0001108 100.9840 259.1277 15.08845504101134,6917.864,95.437,540.495,538.962,0.0
49724.0,STARLINK-3219,PAYLOAD,2023-10-01 21:59:39,15.08842604,0.0001251,53.2163,183.6886,102.1432,257.9701,4.5359e-05,4.34e-06,0.0,0 STARLINK-3219,1 49724U 21115A   23274.91643077  .00000434  00000-0  45359-4 0  9992,2 49724  53.2163 183.6886 0001251 102.1432 257.9701 15.08842604101203,6917.872,95.437,540.603,538.872,0.0
49724.0,STARLINK-3219,PAYLOAD,2023-10-02 01:10:25,15.08845714,0.0001224,53.2158,183.0963,99.9554,260.1576,0.00013723,1.897e-05,0.0,0 STARLINK-3219,1 49724U 21115A   23275.04890999  .00001897  00000-0  13723-3 0  9997,2 49724  53.2158 183.0963 0001224  99.9554 260.1576 15.08845714102331,6917.863,95.437,540.575,538.881,0.0
49724.0,STARLINK-3219,PAYLOAD,2023-10-02 10:42:44,15.08846516,0.0001185,53.2158,181.3112,98.9656,261.147,0.00023392,3.438e-05,0.0,0 STARLINK-3219,1 49724U 21115A   23275.44634988  .00003438  00000-0  23392-3 0  9991,2 49724  53.2158 181.3112 0001185  98.9656 261.1470 15.08846516101284,6917.86,95.437,540.545,538.906,0.0
49724.0,STARLINK-3219,PAYLOAD,2023-10-03 02:36:36,15.08846362,0.0001555,53.2171,178.3365,92.3158,267.8012,0.0002414,3.557e-05,0.0,0 STARLINK-3219,1 49724U 21115A   23276.10875359  .00003557  00000-0  24140-3 0  9998,2 49724  53.2171 178.3365 0001555  92.3158 267.8012 15.08846362102499,6917.861,95.437,540.802,538.65,0.0
49724.0,STARLINK-3219,PAYLOAD,2023-10-03 10:33:32,15.08841013,0.0001687,53.2161,176.8501,83.4649,276.6535,9.5836e-05,1.238e-05,0.0,0 STARLINK-3219,1 49724U 21115A   23276.43995617  .00001238  00000-0  95836-4 0  9999,2 49724  53.2161 176.8501 0001687  83.4649 276.6535 15.08841013101434,6917.877,95.437,540.909,538.575,0.0
49724.0,STARLINK-3219,PAYLOAD,2023-10-03 21:41:14,15.08835852,0.0001847,53.216,174.7678,81.272,278.8481,7.2711e-05,8.69e-06,0.0,0 STARLINK-3219,1 49724U 21115A   23276.90363995  .00000869  00000-0  72711-4 0  9995,2 49724  53.2160 174.7678 0001847  81.2720 278.8481 15.08835852101505,6917.893,95.438,541.036,538.48,0.0
49724.0,STARLINK-3219,PAYLOAD,2023-10-04 10:24:19,15.08845981,0.0001402,53.2158,172.3923,88.7787,271.3366,0.00023367,3.433e-05,0.0,0 STARLINK-3219,1 49724U 21115A   23277.43355570  .00003433  00000-0  23367-3 0  9996,2 49724  53.2158 172.3923 0001402  88.7787 271.3366 15.08845981101583,6917.862,95.437,540.697,538.757,0.0
